STARLINK-2388           
1 47807U 21018W   26068.70635189  .00000794  00000+0  38947-4 0  9993
2 47807  53.1597 216.6328 0001071  96.2177 263.8945 15.30196777277084
ARCSTONE                
1 64540U 25135N   26068.88991918  .00026427  00000+0  94900-3 0  9995
2 64540  97.4495 185.9194 0004120 166.7863 193.3485 15.28638458 39847
